ONEWEB-0120             
1 47266U 20100J   24324.85819479  .00000214  00000+0  56005-3 0  9999
2 47266  87.8864 105.0452 0001329 100.3975 259.7303 13.12438622189396
ONEWEB-0121             
1 47267U 20100K   24324.84670735  .00000488  00000+0  13197-2 0  9996
2 47267  87.8855 105.0301 0001598  93.2432 266.8879 13.12440746189304
ONEWEB-0122             
1 47268U 20100L   24324.84168319  .00000314  00000+0  83846-3 0  9994
2 47268  87.8857 105.0362 0001402  92.2836 267.8453 13.12445641189213
ONEWEB-0123             
1 47269U 20100M   24324.45578921  .00000417  00000+0  11251-2 0  9990
2 47269  87.8860 105.1325 0001520  99.8301 260.2999 13.12441337189309
ONEWEB-0124             
1 47270U 20100N   24324.36818420  .00002467  00000+0  68228-2 0  9996
2 47270  87.8862 105.1462 0001905  77.5976 282.5366 13.12430136189178
ONEWEB-0125             
1 47271U 20100P   24324.42172606 -.00001065  00000+0 -29957-2 0  9994
2 47271  87.8892 105.0967 0001415 113.4128 246.7149 13.12432743189241
ONEWEB-0126             
1 47272U 20100Q   24324.44684253  .00000114  00000+0  28286-3 0  9990
2 47272  87.8856 105.0920 0001385  98.8971 261.2314 13.12446770189318
ONEWEB-0127             
1 47273U 20100R   24324.71369253 -.00000037  00000+0 -13693-3 0  9993
2 47273  87.8865 105.0724 0001363  97.0162 263.1122 13.12441250189372
